{"fetched_at":"2026-07-23T07:05:48.218Z","source":"https://celestrak.org/NORAD/elements/gp.php?NAME=JILIN&FORMAT=JSON","constellation":"jilin-1-early","records":[{"OBJECT_NAME":"JILIN-1","OBJECT_ID":"2015-057D","EPOCH":"2026-07-22T21:21:34.921728","CLASSIFICATION_TYPE":"U","MEAN_MOTION":14.78209963,"ECCENTRICITY":0.00178596,"INCLINATION":97.6525,"RA_OF_ASC_NODE":201.4876,"ARG_OF_PERICENTER":142.7917,"MEAN_ANOMALY":217.4536,"EPHEMERIS_TYPE":0,"NORAD_CAT_ID":40961,"ELEMENT_SET_NO":999,"REV_AT_EPOCH":58088,"BSTAR":0.000097183876,"MEAN_MOTION_DOT":0.00000658,"MEAN_MOTION_DDOT":0},{"OBJECT_NAME":"JILIN-1 03","OBJECT_ID":"2017-002B","EPOCH":"2026-07-22T21:53:15.192960","CLASSIFICATION_TYPE":"U","MEAN_MOTION":15.42380858,"ECCENTRICITY":0.00073393,"INCLINATION":97.196,"RA_OF_ASC_NODE":210.5137,"ARG_OF_PERICENTER":58.5789,"MEAN_ANOMALY":301.6176,"EPHEMERIS_TYPE":0,"NORAD_CAT_ID":41914,"ELEMENT_SET_NO":999,"REV_AT_EPOCH":52736,"BSTAR":0.0003738653,"MEAN_MOTION_DOT":0.00016083,"MEAN_MOTION_DDOT":0},{"OBJECT_NAME":"JILIN-1 04","OBJECT_ID":"2017-074A","EPOCH":"2026-07-22T21:16:45.264864","CLASSIFICATION_TYPE":"U","MEAN_MOTION":15.43283883,"ECCENTRICITY":0.00050716,"INCLINATION":97.4873,"RA_OF_ASC_NODE":314.4776,"ARG_OF_PERICENTER":79.2812,"MEAN_ANOMALY":280.9006,"EPHEMERIS_TYPE":0,"NORAD_CAT_ID":43022,"ELEMENT_SET_NO":999,"REV_AT_EPOCH":47977,"BSTAR":0.00033554104,"MEAN_MOTION_DOT":0.00014855,"MEAN_MOTION_DDOT":0},{"OBJECT_NAME":"JILIN-1 05","OBJECT_ID":"2017-074B","EPOCH":"2026-07-22T20:45:03.692448","CLASSIFICATION_TYPE":"U","MEAN_MOTION":15.34373614,"ECCENTRICITY":0.00066109,"INCLINATION":97.4877,"RA_OF_ASC_NODE":310.5177,"ARG_OF_PERICENTER":103.3837,"MEAN_ANOMALY":256.8143,"EPHEMERIS_TYPE":0,"NORAD_CAT_ID":43023,"ELEMENT_SET_NO":999,"REV_AT_EPOCH":47947,"BSTAR":0.0002793317,"MEAN_MOTION_DOT":0.00009224,"MEAN_MOTION_DDOT":0},{"OBJECT_NAME":"JILIN-1 06","OBJECT_ID":"2017-074C","EPOCH":"2026-07-22T21:46:26.449248","CLASSIFICATION_TYPE":"U","MEAN_MOTION":15.34065333,"ECCENTRICITY":0.00084169,"INCLINATION":97.4801,"RA_OF_ASC_NODE":307.5216,"ARG_OF_PERICENTER":111.3959,"MEAN_ANOMALY":248.8183,"EPHEMERIS_TYPE":0,"NORAD_CAT_ID":43024,"ELEMENT_SET_NO":999,"REV_AT_EPOCH":47931,"BSTAR":0.00022387546,"MEAN_MOTION_DOT":0.00007306,"MEAN_MOTION_DDOT":0},{"OBJECT_NAME":"JILIN-1 07","OBJECT_ID":"2018-008E","EPOCH":"2026-07-22T21:09:25.665120","CLASSIFICATION_TYPE":"U","MEAN_MOTION":15.35256142,"ECCENTRICITY":0.00061938,"INCLINATION":97.1773,"RA_OF_ASC_NODE":222.8699,"ARG_OF_PERICENTER":293.1778,"MEAN_ANOMALY":66.8814,"EPHEMERIS_TYPE":0,"NORAD_CAT_ID":43159,"ELEMENT_SET_NO":999,"REV_AT_EPOCH":47047,"BSTAR":0.00028081003,"MEAN_MOTION_DOT":0.00009542,"MEAN_MOTION_DDOT":0},{"OBJECT_NAME":"JILIN-1 08","OBJECT_ID":"2018-008F","EPOCH":"2026-07-22T21:46:41.438784","CLASSIFICATION_TYPE":"U","MEAN_MOTION":15.34073605,"ECCENTRICITY":0.00044617,"INCLINATION":97.181,"RA_OF_ASC_NODE":222.1703,"ARG_OF_PERICENTER":319.0675,"MEAN_ANOMALY":41.0233,"EPHEMERIS_TYPE":0,"NORAD_CAT_ID":43160,"ELEMENT_SET_NO":999,"REV_AT_EPOCH":47042,"BSTAR":0.00019788117,"MEAN_MOTION_DOT":0.00006449,"MEAN_MOTION_DDOT":0},{"OBJECT_NAME":"JILIN-1 09","OBJECT_ID":"2019-005B","EPOCH":"2026-07-22T21:51:48.554496","CLASSIFICATION_TYPE":"U","MEAN_MOTION":15.20787584,"ECCENTRICITY":0.00016059,"INCLINATION":97.4739,"RA_OF_ASC_NODE":298.5759,"ARG_OF_PERICENTER":16.8494,"MEAN_ANOMALY":343.2794,"EPHEMERIS_TYPE":0,"NORAD_CAT_ID":43943,"ELEMENT_SET_NO":999,"REV_AT_EPOCH":41457,"BSTAR":0.00020497512,"MEAN_MOTION_DOT":0.00004447,"MEAN_MOTION_DDOT":0},{"OBJECT_NAME":"JILIN-1 10","OBJECT_ID":"2019-005E","EPOCH":"2026-07-22T20:47:05.517312","CLASSIFICATION_TYPE":"U","MEAN_MOTION":15.26068506,"ECCENTRICITY":0.00092194,"INCLINATION":97.4791,"RA_OF_ASC_NODE":302.6809,"ARG_OF_PERICENTER":145.3242,"MEAN_ANOMALY":214.8599,"EPHEMERIS_TYPE":0,"NORAD_CAT_ID":43946,"ELEMENT_SET_NO":999,"REV_AT_EPOCH":41475,"BSTAR":0.00024989192,"MEAN_MOTION_DOT":0.00006372,"MEAN_MOTION_DDOT":0}]}
