{"epoch":1784799577,"count":18318,"objects":[{"id":"40961","name":"JILIN 1","type":"PAYLOAD","l1":"1 40961U 15057D   26203.88998752  .00000658  00000-0  97184-4 0  9999","l2":"2 40961  97.6525 201.4876 0017860 142.7917 217.4536 14.78209963580883"},{"id":"41914","name":"JILIN-1-03","type":"PAYLOAD","l1":"1 41914U 17002B   26203.91198140  .00016083  00000-0  37387-3 0  9994","l2":"2 41914  97.1960 210.5137 0007339  58.5789 301.6176 15.42380858527367"},{"id":"43022","name":"JILIN-01-04","type":"PAYLOAD","l1":"1 43022U 17074A   26203.88663501  .00014855  00000-0  33554-3 0  9996","l2":"2 43022  97.4873 314.4776 0005072  79.2812 280.9006 15.43283883479770"},{"id":"43023","name":"JILIN-01-05","type":"PAYLOAD","l1":"1 43023U 17074B   26203.86462607  .00009224  00000-0  27933-3 0  9997","l2":"2 43023  97.4877 310.5177 0006611 103.3837 256.8143 15.34373614479476"},{"id":"43024","name":"JILIN-01-06","type":"PAYLOAD","l1":"1 43024U 17074C   26203.90725057  .00007306  00000-0  22388-3 0  9992","l2":"2 43024  97.4801 307.5216 0008417 111.3959 248.8183 15.34065333479318"},{"id":"43159","name":"JILIN-01-07","type":"PAYLOAD","l1":"1 43159U 18008E   26203.88154705  .00009542  00000-0  28081-3 0  9992","l2":"2 43159  97.1773 222.8699 0006194 293.1778  66.8814 15.35256142470472"},{"id":"43160","name":"JILIN-01-08","type":"PAYLOAD","l1":"1 43160U 18008F   26203.90742406  .00006449  00000-0  19788-3 0  9995","l2":"2 43160  97.1810 222.1703 0004462 319.0675  41.0233 15.34073605470420"},{"id":"43943","name":"JILIN-01-09","type":"PAYLOAD","l1":"1 43943U 19005B   26203.91097864  .00004447  00000-0  20498-3 0  9990","l2":"2 43943  97.4739 298.5759 0001606  16.8494 343.2794 15.20787584414574"},{"id":"43946","name":"JILIN-01-10","type":"PAYLOAD","l1":"1 43946U 19005E   26203.86603608  .00006372  00000-0  24989-3 0  9994","l2":"2 43946  97.4791 302.6809 0009219 145.3242 214.8599 15.26068506414753"}]}